HELLAS-SAT 2            
1 27811U 03020A   23070.43076912 -.00000074  00000+0  00000+0 0  9998
2 27811   4.3506  81.6863 0006354 263.5101 328.6917  1.00272163 30873
THURAYA-2               
1 27825U 03026A   23070.51369275  .00000136  00000+0  00000+0 0  9993
2 27825   7.0772  34.5759 0002142 298.7483  64.4859  1.00272534 72382
OPTUS C1                
1 27831U 03028B   23070.64368220 -.00000143  00000+0  00000+0 0  9994
2 27831   3.8691  83.4716 0005831 275.9672 197.0211  1.00270806 41093
GALAXY 23 (G-23)        
1 27854U 03034A   23070.52410325  .00000020  00000+0  00000+0 0  9990
2 27854   0.1104 100.1835 0002687 259.5791 236.8288  1.00273191 71776
USA 170                 
1 27875U 03040A   23070.35301413 -.00000264  00000+0  00000+0 0  9999
2 27875   7.9448  58.0139 0002570 326.0305 229.4306  1.00269704 20997
GALAXY 13 (HORIZONS-1)  
1 27954U 03044A   23070.57833160  .00000055  00000+0  00000+0 0  9991
2 27954   0.0034 178.7914 0001852 190.7715 240.5777  1.00273275 34601
YAMAL 202               
1 28089U 03053A   23070.60922537 -.00000072  00000+0  00000+0 0  9992
2 28089   3.3079  85.0612 0003018 268.0842 198.6830  1.00272516 70719
UFO 11 (USA 174)        
1 28117U 03057A   23070.60428919 -.00000094  00000+0  00000+0 0  9997
2 28117   7.3635  37.6847 0003762 348.8550  75.3954  1.00273559 70485
USA 176 (DSP 22)        
1 28158U 04004A   23070.61080979 -.00000210  00000+0  00000+0 0  9996
2 28158  10.4404  33.7645 0000681 308.0633 134.4465  1.00271111 20963
ABS-4 (MOBISAT-1)       
1 28184U 04007A   23070.15854953  .00000047  00000+0  00000+0 0  9995
2 28184   2.9971  86.1751 0005556 268.6063 291.8690  1.00275884 40366
EUTELSAT 7A             
1 28187U 04008A   23070.48941903  .00000112  00000+0  00000+0 0  9990
2 28187   2.7808  85.6393 0004238 266.5626 213.6503  1.00270782 69380
AMC-11 (GE-11)          
1 28252U 04017A   23070.52310329 -.00000042  00000+0  00000+0 0  9993
2 28252   0.0543 315.0141 0002332  15.4501 275.6550  1.00272099 68907
INTELSAT 10-02          
1 28358U 04022A   23070.03228962 -.00000004  00000+0  00000+0 0  9991
2 28358   0.0359 261.0443 0001121 113.8479 164.1572  1.00272210 68570
ANIK F2                 
1 28378U 04027A   23070.52305309 -.00000042  00000+0  00000+0 0  9995
2 28378   0.3007  91.4692 0002011 307.5098 207.1090  1.00271823 29292
AMC-15                  
1 28446U 04041A   23070.52981834 -.00000081  00000+0  00000+0 0  9993
2 28446   0.0426 321.8104 0002404  28.8061 263.9724  1.00271727 67342
NSS-10 (AMC-12)         
1 28526U 05003A   23070.49748010 -.00000243  00000+0  00000+0 0  9994
2 28526   3.4453  84.4496 0003190 256.5551 329.5247  1.00271444 41180
XTAR-EUR                
1 28542U 05005A   23069.70956912  .00000158  00000+0  00000+0 0  9992
2 28542   1.2510  91.4824 0003551 259.0595 102.0092  1.00274052 66219
XM-3 (RHYTHM)           
1 28626U 05008A   23070.21854868 -.00000198  00000+0  00000+0 0  9998
2 28626   0.0124 183.9519 0000449 244.0129  94.2084  1.00270609 30654
INMARSAT 4-F1           
1 28628U 05009A   23070.39005917 -.00000253  00000+0  00000+0 0  9995
2 28628   3.8246  37.6473 0003053 322.4807  92.5713  1.00271614 65705
DIRECTV 8               
1 28659U 05019A   23069.47312094  .00000008  00000+0  00000+0 0  9991
2 28659   0.0158 134.6474 0003115 226.1439 218.3532  1.00272007 65095
GALAXY 28 (G-28)        
1 28702U 05022A   23070.48719465 -.00000178  00000+0  00000+0 0  9999
2 28702   0.2137  91.4651 0003171 264.8181 258.9829  1.00271614 40012
THAICOM 4               
1 28786U 05028A   23069.89421566 -.00000356  00000+0  00000+0 0  9990
2 28786   0.0232 153.6856 0002179 203.7795 252.2316  1.00268333 40276
GALAXY 14 (G-14)        
1 28790U 05030A   23070.51151365  .00000163  00000+0  00000+0 0  9991
2 28790   1.9375  89.2688 0002151 261.0858  35.5781  1.00271451 64339
ANIK F1R                
1 28868U 05036A   23070.12499108 -.00000067  00000+0  00000+0 0  9994
2 28868   1.2356  91.0796 0002379 307.9609  67.1782  1.00272255 34482
GALAXY 15 (G-15)        
1 28884U 05041A   23069.48029389 -.00000062  00000+0  00000+0 0  9990
2 28884   0.4898  92.4044 0004157 236.5375 262.5541  1.00319732 63631
SYRACUSE 3A             
1 28885U 05041B   23070.51430291  .00000136  00000+0  00000+0 0  9996
2 28885   1.7957  90.1792 0003241 254.7422  56.1056  1.00272670 63777
INMARSAT 4-F2           
1 28899U 05044A   23070.01112705  .00000018  00000+0  00000+0 0  9995
2 28899   3.7198  39.5926 0002886 319.9451 236.7681  1.00271658 63547
SPACEWAY 2              
1 28903U 05046B   23069.78995865  .00000111  00000+0  00000+0 0  9995
2 28903   2.5145  85.2530 0000503 239.2067 349.1747  1.00271881 39365
METEOSAT-9 (MSG-2)      
1 28912U 05049B   23070.51404141  .00000136  00000+0  00000+0 0  9990
2 28912   6.6230  64.4679 0001864 181.2668 153.9046  1.00270349 63078
EUTELSAT 174A           
1 28924U 05052A   23070.57739994  .00000017  00000+0  00000+0 0  9998
2 28924   1.1774  90.6348 0006278 263.3009 196.8751  1.00272366 40360
ECHOSTAR 10             
1 28935U 06003A   23070.52310323 -.00000048  00000+0  00000+0 0  9998
2 28935   0.0471 300.8882 0001550  71.3273 234.8061  1.00271138 62504
SPAINSAT                
1 28945U 06007A   23069.61648553 -.00000209  00000+0  00000+0 0  9999
2 28945   0.0321 229.1366 0003923  94.2762  36.5489  1.00271920 62243
EUTELSAT HOTBIRD 13E    
1 28946U 06007B   23070.25205744  .00000094  00000+0  00000+0 0  9994
2 28946   0.0459 194.8932 0002831 142.7244 294.7398  1.00270959 62354
JCSAT-5A                
1 29045U 06010A   23070.57156744 -.00000321  00000+0  00000+0 0  9993
2 29045   0.0314 251.6188 0001870 110.3822 144.7768  1.00270896 61809
ASTRA 1KR               
1 29055U 06012A   23070.29365493  .00000126  00000+0  00000+0 0  9990
2 29055   0.0712 278.0456 0002998  19.4093 356.1242  1.00268820 33757
EWS-G1 (GOES 13)        
1 29155U 06018A   23070.59466479  .00000045  00000+0  00000+0 0  9996
2 29155   1.2762  92.2474 0002797 180.9652 171.1397  1.00274460 31407
EUTELSAT 113 WEST A     
1 29162U 06020A   23070.51974917 -.00000030  00000+0  00000+0 0  9995
2 29162   0.0325 288.9997 0003190  73.1496 240.8499  1.00272403 61504
GALAXY 16 (G-16)        
1 29236U 06023A   23070.48518986 -.00000119  00000+0  00000+0 0  9994
2 29236   0.0462 262.4071 0002706  89.7983 252.3265  1.00271250 61007
EUTELSAT HOTBIRD 13B    
1 29270U 06032A   23070.36382258  .00000093  00000+0  00000+0 0  9990
2 29270   0.0606 344.0177 0005442   5.0994 323.5945  1.00270492 35332
JCSAT-3A                
1 29272U 06033A   23069.89664554 -.00000338  00000+0  00000+0 0  9994
2 29272   0.0101 211.2022 0002072 139.0686 268.8218  1.00271180 35766
SYRACUSE 3B             
1 29273U 06033B   23070.14530047 -.00000037  00000+0  00000+0 0  9990
2 29273   0.0095 152.2327 0004501 205.6692 217.7326  1.00272133 60734
KOREASAT 5 (MUGUNGWHA 5)
1 29349U 06034A   23069.89129416 -.00000352  00000+0  00000+0 0  9999
2 29349   0.0184 145.8668 0001501 203.4710 252.8624  1.00273306 29343
DIRECTV 9S              
1 29494U 06043A   23070.48475403 -.00000106  00000+0  00000+0 0  9994
2 29494   0.0166 144.1865 0003282 217.1608 240.8299  1.00272003 39418
OPTUS D1                
1 29495U 06043B   23070.58480394 -.00000104  00000+0  00000+0 0  9999
2 29495   0.0276 273.6823 0003508  81.1563 184.6634  1.00271999 60159
XM-4 (BLUES)            
1 29520U 06049A   23069.28938198 -.00000250  00000+0  00000+0 0  9991
2 29520   0.1023 298.5075 0000965  52.4036 241.9206  1.00276183 39499
BADR-4                  
1 29526U 06051A   23070.51003184  .00000151  00000+0  00000+0 0  9995
2 29526   0.0132   2.7543 0005695 345.0887  30.6426  1.00271892 39297
WILDBLUE-1              
1 29643U 06054A   23069.47193414 -.00000042  00000+0  00000+0 0  9997
2 29643   0.0267 253.1058 0001795  88.0550 245.4200  1.00272248 41810
AMC-18                  
1 29644U 06054B   23070.48841497 -.00000209  00000+0  00000+0 0  9997
2 29644   0.0397 314.1764 0002348  26.2930 281.2378  1.00272030 59562
SKYNET 5A               
1 30794U 07007B   23070.61177778 -.00000264  00000+0  00000+0 0  9994
2 30794   2.2430  87.6609 0003460 265.8260 130.9345  1.00270822 58734
ANIK F3                 
1 31102U 07009A   23069.47312049  .00000006  00000+0  00000+0 0  9997
2 31102   0.0118 222.1591 0002528 130.4182 226.9170  1.00270409 34587
ASTRA 1L                
1 31306U 07016A   23070.29365493  .00000127  00000+0  00000+0 0  9998
2 31306   0.0836 303.5245 0005015  18.9659 331.1243  1.00275215 33032
GALAXY 17 (G-17)        
1 31307U 07016B   23070.12821618 -.00000166  00000+0  00000+0 0  9991
2 31307   0.0339 269.5271 0001127  88.6527 125.4360  1.00265847 57837
ZHONGXING-6B            
1 31800U 07031A   23069.89184713 -.00000355  00000+0  00000+0 0  9996
2 31800   0.0172 218.4729 0003893 125.0754 261.2771  1.00275678 57457
DIRECTV 10              
1 31862U 07032A   23069.48551019 -.00000097  00000+0  00000+0 0  9990
2 31862   0.0459 328.8210 0000164  45.0066 226.0387  1.00271923 33612
SPACEWAY 3              
1 32018U 07036A   23070.48597434 -.00000144  00000+0  00000+0 0  9994
2 32018   0.9012  90.6713 0000325 271.3648 246.8253  1.00271486 34584
BSAT-3A                 
1 32019U 07036B   23069.98240971 -.00000343  00000+0  00000+0 0  9990
2 32019   0.0750 243.5443 0001332  33.7874 354.5429  1.00269953 38542
OPTUS D2                
1 32252U 07044A   23070.64240654 -.00000176  00000+0  00000+0 0  9995
2 32252   0.0463 288.0891 0003681  66.3486 197.8606  1.00271438 56606
INTELSAT 11 (IS-11)     
1 32253U 07044B   23070.49634696 -.00000261  00000+0  00000+0 0  9997
2 32253   0.4661  93.2993 0003075 265.6626 305.5948  1.00271875 56520
WGS F1 (USA 195)        
1 32258U 07046A   23068.92854951  .00000046  00000+0  00000+0 0  9997
2 32258   0.0214 131.3551 0000801 253.2504 123.0160  1.00270955 40363
